{"fetched_at":"2026-03-29T16:36:15Z","count":15609,"tles":[{"name":"STARLINK-35348","line1":"1 65904U 25224Y   26087.80296163  .00018474  00000+0  63408-3 0  9994","line2":"2 65904  53.1589 282.3473 0000733  69.2224 290.8855 15.30211954 27753","category":"Starlink"}]}